{
  "type": "FeatureCollection",
  "features": [
    {
      "type": "Feature",
      "properties": {
        "norad_id": 29945,
        "name": "FENGYUN 1C DEB",
        "group": "fengyun-1c-debris",
        "lat": 3.3932788709368205,
        "lon": -159.9469199721388,
        "alt_km": 897.6666933441884,
        "timestamp": "2025-12-22T04:03:39.441607+00:00",
        "meta_object_name": "FENGYUN 1C DEB",
        "meta_object_id": "1999-025JT",
        "meta_epoch": "2025-12-21T19:30:24.967008",
        "meta_mean_motion": 14.05577015,
        "meta_eccentricity": 0.0030496,
        "meta_inclination": 98.7911,
        "meta_ra_of_asc_node": 19.1817,
        "meta_arg_of_pericenter": 336.7252,
        "meta_mean_anomaly": 197.349,
        "meta_ephemeris_type": 0,
        "meta_classification_type": "U",
        "meta_norad_cat_id": 29945,
        "meta_element_set_no": 999,
        "meta_rev_at_epoch": 97105,
        "meta_bstar": 0.00020874,
        "meta_mean_motion_dot": 2.98e-06,
        "meta_mean_motion_ddot": 0,
        "tle_line1": "1 29945U 99025JT  25355.81278897  .00000298  00000+0  20874-3 0  9996",
        "tle_line2": "2 29945  98.7911  19.1817 0030496 336.7252 197.3490 14.05577015971053"
      },
      "geometry": {
        "type": "Point",
        "coordinates": [
          -159.9469199721388,
          3.3932788709368205
        ]
      }
    },
    {
      "type": "Feature",
      "properties": {
        "norad_id": 29946,
        "name": "FENGYUN 1C DEB",
        "group": "fengyun-1c-debris",
        "lat": -69.43207136355045,
        "lon": 12.479300253802238,
        "alt_km": 821.1649105216493,
        "timestamp": "2025-12-22T04:03:39.441617+00:00",
        "meta_object_name": "FENGYUN 1C DEB",
        "meta_object_id": "1999-025JU",
        "meta_epoch": "2025-12-21T11:56:48.573888",
        "meta_mean_motion": 14.08262453,
        "meta_eccentricity": 0.00802827,
        "meta_inclination": 98.7804,
        "meta_ra_of_asc_node": 347.5025,
        "meta_arg_of_pericenter": 318.7255,
        "meta_mean_anomaly": 168.3719,
        "meta_ephemeris_type": 0,
        "meta_classification_type": "U",
        "meta_norad_cat_id": 29946,
        "meta_element_set_no": 999,
        "meta_rev_at_epoch": 97170,
        "meta_bstar": 0.000239666,
        "meta_mean_motion_dot": 3.78e-06,
        "meta_mean_motion_ddot": 0,
        "tle_line1": "1 29946U 99025JU  25355.49778442  .00000378  00000+0  23967-3 0  9997",
        "tle_line2": "2 29946  98.7804 347.5025 0080282 318.7255 168.3719 14.08262453971709"
      },
      "geometry": {
        "type": "Point",
        "coordinates": [
          12.479300253802238,
          -69.43207136355045
        ]
      }
    },
    {
      "type": "Feature",
      "properties": {
        "norad_id": 29947,
        "name": "FENGYUN 1C DEB",
        "group": "fengyun-1c-debris",
        "lat": 80.55432997001775,
        "lon": -84.31183178387234,
        "alt_km": 845.9874825422467,
        "timestamp": "2025-12-22T04:03:39.441627+00:00",
        "meta_object_name": "FENGYUN 1C DEB",
        "meta_object_id": "1999-025JV",
        "meta_epoch": "2025-12-19T02:20:06.910080",
        "meta_mean_motion": 14.03076836,
        "meta_eccentricity": 0.00409382,
        "meta_inclination": 98.837,
        "meta_ra_of_asc_node": 23.4652,
        "meta_arg_of_pericenter": 103.4009,
        "meta_mean_anomaly": 322.0685,
        "meta_ephemeris_type": 0,
        "meta_classification_type": "U",
        "meta_norad_cat_id": 29947,
        "meta_element_set_no": 999,
        "meta_rev_at_epoch": 96839,
        "meta_bstar": 0.00037045078,
        "meta_mean_motion_dot": 5.38e-06,
        "meta_mean_motion_ddot": 0,
        "tle_line1": "1 29947U 99025JV  25353.09730220  .00000538  00000+0  37045-3 0  9994",
        "tle_line2": "2 29947  98.8370  23.4652 0040938 103.4009 322.0685 14.03076836968390"
      },
      "geometry": {
        "type": "Point",
        "coordinates": [
          -84.31183178387234,
          80.55432997001775
        ]
      }
    },
    {
      "type": "Feature",
      "properties": {
        "norad_id": 29948,
        "name": "FENGYUN 1C DEB",
        "group": "fengyun-1c-debris",
        "lat": 63.453081000122204,
        "lon": -36.00856534482296,
        "alt_km": 914.0026921529525,
        "timestamp": "2025-12-22T04:03:39.441691+00:00",
        "meta_object_name": "FENGYUN 1C DEB",
        "meta_object_id": "1999-025JW",
        "meta_epoch": "2025-12-21T18:21:25.599168",
        "meta_mean_motion": 14.06197235,
        "meta_eccentricity": 0.0084042,
        "meta_inclination": 98.8248,
        "meta_ra_of_asc_node": 341.7135,
        "meta_arg_of_pericenter": 208.0194,
        "meta_mean_anomaly": 331.7918,
        "meta_ephemeris_type": 0,
        "meta_classification_type": "U",
        "meta_norad_cat_id": 29948,
        "meta_element_set_no": 999,
        "meta_rev_at_epoch": 97103,
        "meta_bstar": 3.0912e-05,
        "meta_mean_motion_dot": 9e-08,
        "meta_mean_motion_ddot": 0,
        "tle_line1": "1 29948U 99025JW  25355.76487962  .00000009  00000+0  30912-4 0  9993",
        "tle_line2": "2 29948  98.8248 341.7135 0084042 208.0194 331.7918 14.06197235971039"
      },
      "geometry": {
        "type": "Point",
        "coordinates": [
          -36.00856534482296,
          63.453081000122204
        ]
      }
    },
    {
      "type": "Feature",
      "properties": {
        "norad_id": 29949,
        "name": "FENGYUN 1C DEB",
        "group": "fengyun-1c-debris",
        "lat": 39.61277955693981,
        "lon": 4.2254614547956155,
        "alt_km": 876.0350551091233,
        "timestamp": "2025-12-22T04:03:39.441705+00:00",
        "meta_object_name": "FENGYUN 1C DEB",
        "meta_object_id": "1999-025JX",
        "meta_epoch": "2025-12-21T20:09:47.344320",
        "meta_mean_motion": 14.06828554,
        "meta_eccentricity": 0.002303,
        "meta_inclination": 98.7616,
        "meta_ra_of_asc_node": 11.2399,
        "meta_arg_of_pericenter": 278.8686,
        "meta_mean_anomaly": 255.4648,
        "meta_ephemeris_type": 0,
        "meta_classification_type": "U",
        "meta_norad_cat_id": 29949,
        "meta_element_set_no": 999,
        "meta_rev_at_epoch": 97235,
        "meta_bstar": -4.3501e-05,
        "meta_mean_motion_dot": -1.15e-06,
        "meta_mean_motion_ddot": 0,
        "tle_line1": "1 29949U 99025JX  25355.84013130 -.00000115  00000+0 -43501-4 0  9993",
        "tle_line2": "2 29949  98.7616  11.2399 0023030 278.8686 255.4648 14.06828554972353"
      },
      "geometry": {
        "type": "Point",
        "coordinates": [
          4.2254614547956155,
          39.61277955693981
        ]
      }
    },
    {
      "type": "Feature",
      "properties": {
        "norad_id": 29950,
        "name": "FENGYUN 1C DEB",
        "group": "fengyun-1c-debris",
        "lat": -5.272442933964942,
        "lon": 27.795951997189277,
        "alt_km": 879.8183045524183,
        "timestamp": "2025-12-22T04:03:39.441715+00:00",
        "meta_object_name": "FENGYUN 1C DEB",
        "meta_object_id": "1999-025JY",
        "meta_epoch": "2025-12-21T13:20:56.053248",
        "meta_mean_motion": 14.10337885,
        "meta_eccentricity": 0.0032631,
        "meta_inclination": 98.74,
        "meta_ra_of_asc_node": 26.3868,
        "meta_arg_of_pericenter": 216.5884,
        "meta_mean_anomaly": 267.3446,
        "meta_ephemeris_type": 0,
        "meta_classification_type": "U",
        "meta_norad_cat_id": 29950,
        "meta_element_set_no": 999,
        "meta_rev_at_epoch": 97415,
        "meta_bstar": 0.00012484,
        "meta_mean_motion_dot": 1.8e-06,
        "meta_mean_motion_ddot": 0,
        "tle_line1": "1 29950U 99025JY  25355.55620432  .00000180  00000+0  12484-3 0  9997",
        "tle_line2": "2 29950  98.7400  26.3868 0032631 216.5884 267.3446 14.10337885974155"
      },
      "geometry": {
        "type": "Point",
        "coordinates": [
          27.795951997189277,
          -5.272442933964942
        ]
      }
    },
    {
      "type": "Feature",
      "properties": {
        "norad_id": 29953,
        "name": "FENGYUN 1C DEB",
        "group": "fengyun-1c-debris",
        "lat": 18.221327403401435,
        "lon": 165.70024223239835,
        "alt_km": 910.7671809857729,
        "timestamp": "2025-12-22T04:03:39.441726+00:00",
        "meta_object_name": "FENGYUN 1C DEB",
        "meta_object_id": "1999-025KB",
        "meta_epoch": "2025-12-20T12:08:38.057856",
        "meta_mean_motion": 13.90855371,
        "meta_eccentricity": 0.01056476,
        "meta_inclination": 98.9378,
        "meta_ra_of_asc_node": 341.1304,
        "meta_arg_of_pericenter": 245.2856,
        "meta_mean_anomaly": 234.0453,
        "meta_ephemeris_type": 0,
        "meta_classification_type": "U",
        "meta_norad_cat_id": 29953,
        "meta_element_set_no": 999,
        "meta_rev_at_epoch": 95970,
        "meta_bstar": 0.00033966094,
        "meta_mean_motion_dot": 4.02e-06,
        "meta_mean_motion_ddot": 0,
        "tle_line1": "1 29953U 99025KB  25354.50599604  .00000402  00000+0  33966-3 0  9995",
        "tle_line2": "2 29953  98.9378 341.1304 0105647 245.2856 234.0453 13.90855371959708"
      },
      "geometry": {
        "type": "Point",
        "coordinates": [
          165.70024223239835,
          18.221327403401435
        ]
      }
    }
  ]
}